OBJECT_NAME,OBJECT_ID,EPOCH,MEAN_MOTION,ECCENTRICITY,INCLINATION,RA_OF_ASC_NODE,ARG_OF_PERICENTER,MEAN_ANOMALY,EPHEMERIS_TYPE,CLASSIFICATION_TYPE,NORAD_CAT_ID,ELEMENT_SET_NO,REV_AT_EPOCH,BSTAR,MEAN_MOTION_DOT,MEAN_MOTION_DDOT
2024-043R,2024-043R,2024-03-13T09:51:20.128032,15.16061165,0.0014667,97.4625,198.5654,270.0609,89.8943,0,U,59113,999,128,0.00068723,0.00013204,0
2024-043S,2024-043S,2024-03-13T13:00:58.277952,15.16080933,0.0015091,97.4666,198.6986,264.754,95.1971,0,U,59114,999,130,0.00046903,8.991e-05,0
2024-043T,2024-043T,2024-03-13T13:00:09.222624,15.16304825,0.0014221,97.4598,198.6943,270.4435,89.5169,0,U,59115,999,130,0.0013167,0.00025574,0
2024-043U,2024-043U,2024-03-13T12:58:26.489568,15.16546311,0.0013215,97.4562,198.693,270.8595,89.1124,0,U,59116,999,130,0.0015624,0.00030578,0
2024-043V,2024-043V,2024-03-13T12:58:54.157440,15.16323867,0.0014237,97.4671,198.7004,260.9852,98.977,0,U,59117,999,130,0.00038453,7.407e-05,0
2024-043W,2024-043W,2024-03-13T12:58:15.814848,15.16492665,0.0013224,97.4628,198.6991,267.3379,92.634,0,U,59118,999,130,0.00091524,0.00017826,0
2024-043X,2024-043X,2024-03-13T12:58:05.778624,15.16512233,0.0012455,97.4587,198.6944,268.5707,91.4099,0,U,59119,999,130,0.00090989,0.00017727,0
2024-043Y,2024-043Y,2024-03-13T12:58:12.705312,15.16454225,0.0013295,97.4648,198.7011,265.4367,94.5347,0,U,59120,999,130,0.00067123,0.00013033,0
2024-043Z,2024-043Z,2024-03-13T11:23:00.136032,15.1641573,0.0012966,97.4623,198.6334,263.5004,96.4753,0,U,59121,999,129,0.00030003,5.776e-05,0
2024-043AA,2024-043AA,2024-03-13T12:57:36.493344,15.16502663,0.001324,97.4639,198.6999,262.5644,97.4084,0,U,59122,999,130,0.00049254,9.554e-05,0
2024-043AB,2024-043AB,2024-03-13T12:57:49.723776,15.16442597,0.0012488,97.4597,198.6962,264.1423,95.8387,0,U,59123,999,130,0.00027344,5.261e-05,0
2024-043AC,2024-043AC,2024-03-13T12:56:42.232416,15.16594625,0.0011874,97.4599,198.6968,262.3209,97.6676,0,U,59124,999,130,0.00027202,5.255e-05,0
2024-043AD,2024-043AD,2024-03-13T12:56:33.207072,15.16614627,0.0012554,97.464,198.7022,261.3268,98.6543,0,U,59125,999,130,0.00038755,7.524e-05,0
2024-043AE,2024-043AE,2024-03-13T12:56:28.514688,15.16621367,0.0011464,97.4591,198.6956,261.4745,98.5189,0,U,59126,999,130,0.00037668,7.31e-05,0
2024-043AF,2024-043AF,2024-03-13T12:56:00.023424,15.16696005,0.0011402,97.4606,198.6974,259.8793,100.1154,0,U,59127,999,130,0.0003902,7.591e-05,0
2024-043AG,2024-043AG,2024-03-13T12:56:02.449536,15.16658865,0.0012051,97.4629,198.7024,260.2186,99.7687,0,U,59128,999,130,0.00027005,5.227e-05,0
2024-043AH,2024-043AH,2024-03-13T12:55:27.439392,15.16771432,0.0011473,97.4599,198.697,259.0588,100.9354,0,U,59129,999,130,0.00053159,0.00010392,0
2024-043AJ,2024-043AJ,2024-03-13T12:55:12.588960,15.16786076,0.0011593,97.4609,198.6983,257.4137,102.58,0,U,59130,999,130,0.00041964,8.191e-05,0
2024-043AK,2024-043AK,2024-03-13T12:55:13.603296,15.16757239,0.0012168,97.4627,198.7033,258.4129,101.5739,0,U,59131,999,130,0.00026533,5.149e-05,0
2024-043AL,2024-043AL,2024-03-13T12:54:46.384704,15.16804958,0.00119,97.4606,198.6976,254.996,104.9956,0,U,59132,999,130,0.00022657,4.392e-05,0
2024-043AM,2024-043AM,2024-03-13T12:54:16.565472,15.16901008,0.0012352,97.4626,198.7037,257.1992,102.7861,0,U,59133,999,130,0.00041693,8.166e-05,0
2024-043AN,2024-043AN,2024-03-13T12:53:41.852544,15.16976846,0.0011955,97.4603,198.699,254.4733,105.5181,0,U,59134,999,130,0.00048556,9.543e-05,0
2024-043AP,2024-043AP,2024-03-13T12:53:22.722720,15.1697807,0.001231,97.4628,198.704,252.9791,107.0094,0,U,59135,999,130,0.00022173,4.319e-05,0
2024-043AQ,2024-043AQ,2024-03-13T12:53:04.525152,15.17015333,0.0012199,97.4604,198.7005,252.1701,107.8202,0,U,59136,999,130,0.00021598,4.209e-05,0
2024-043AR,2024-043AR,2024-03-13T12:52:53.341536,15.1703817,0.0011861,97.4606,198.7013,251.638,108.3564,0,U,59137,999,130,0.00021839,4.259e-05,0
2024-043AS,2024-043AS,2024-03-13T12:51:10.215360,15.1744564,0.0010466,97.4556,198.6997,258.7315,101.2742,0,U,59138,999,130,0.0013912,0.00027895,0
2024-043AT,2024-043AT,2024-03-13T11:16:02.529408,15.1744723,0.0010407,97.4558,198.6351,258.243,101.7636,0,U,59139,999,128,0.0012928,0.00025911,0
2024-043AU,2024-043AU,2024-03-13T12:50:31.013088,15.17388722,0.0011218,97.4579,198.6999,247.1934,112.8115,0,U,59140,999,129,0.00059942,0.00011938,0
2024-043AV,2024-043AV,2024-03-13T12:49:58.117152,15.1747676,0.0010816,97.4592,198.7026,247.4257,112.5833,0,U,59141,999,129,0.00068898,0.00013768,0
2024-043AW,2024-043AW,2024-03-13T12:49:58.207872,15.17457294,0.0011481,97.4629,198.7063,245.9182,114.0851,0,U,59142,999,129,0.0005815,0.00011602,0
