59113,OBJECT R,2024,94.98,-1.0,+,97.46,Active,0,LEO,USA,To Be Determined,Unknown,Unknown,Unknown,1 59113U 24043R   24073.41064963  .00013204  00000+0  68723-3 0  9999,2 59113  97.4625 198.5654 0014667 270.0609  89.8943 15.16061165  1284,15.16061165,0.0014667,LEO
59114,OBJECT S,2024,94.98,-1.0,+,97.47,Active,0,LEO,USA,To Be Determined,Unknown,Unknown,Unknown,1 59114U 24043S   24073.54234118  .00008991  00000+0  46903-3 0  9998,2 59114  97.4666 198.6986 0015091 264.7540  95.1971 15.16080933  1303,15.16080933,0.0015091,LEO
59115,OBJECT T,2024,94.97,-1.0,+,97.46,Active,0,LEO,USA,To Be Determined,Unknown,Unknown,Unknown,1 59115U 24043T   24073.54177341  .00025574  00000+0  13167-2 0  9994,2 59115  97.4598 198.6943 0014221 270.4435  89.5169 15.16304825  1307,15.16304825,0.0014221,LEO
59116,OBJECT U,2024,94.95,-1.0,+,97.46,Active,0,LEO,USA,To Be Determined,Unknown,Unknown,Unknown,1 59116U 24043U   24073.54058437  .00030578  00000+0  15624-2 0  9999,2 59116  97.4562 198.6930 0013215 270.8595  89.1124 15.16546311  1303,15.16546311,0.0013215,LEO
59117,OBJECT V,2024,94.97,-1.0,+,97.47,Active,0,LEO,USA,To Be Determined,Unknown,Unknown,Unknown,1 59117U 24043V   24073.54090460  .00007407  00000+0  38453-3 0  9993,2 59117  97.4671 198.7004 0014237 260.9852  98.9770 15.16323867  1303,15.16323867,0.0014237,LEO
59118,OBJECT W,2024,94.96,-1.0,+,97.46,Active,0,LEO,USA,To Be Determined,Unknown,Unknown,Unknown,1 59118U 24043W   24073.54046082  .00017826  00000+0  91524-3 0  9999,2 59118  97.4628 198.6991 0013224 267.3379  92.6340 15.16492665  1307,15.16492665,0.0013224,LEO
59119,OBJECT X,2024,94.95,-1.0,+,97.46,Active,0,LEO,USA,To Be Determined,Unknown,Unknown,Unknown,1 59119U 24043X   24073.54034466  .00017727  00000+0  90989-3 0  9997,2 59119  97.4587 198.6944 0012455 268.5707  91.4099 15.16512233  1305,15.16512233,0.0012455,LEO
59120,OBJECT Y,2024,94.96,-1.0,+,97.46,Active,0,LEO,USA,To Be Determined,Unknown,Unknown,Unknown,1 59120U 24043Y   24073.54042483  .00013033  00000+0  67123-3 0  9997,2 59120  97.4648 198.7011 0013295 265.4367  94.5347 15.16454225  1308,15.16454225,0.0013295,LEO
59121,OBJECT Z,2024,94.96,-1.0,+,97.46,Active,0,LEO,USA,To Be Determined,Unknown,Unknown,Unknown,1 59121U 24043Z   24073.47430713  .00005776  00000+0  30003-3 0  9999,2 59121  97.4623 198.6334 0012966 263.5004  96.4753 15.16415730  1298,15.1641573,0.0012966,LEO
59122,OBJECT AA,2024,94.96,-1.0,+,97.46,Active,0,LEO,USA,To Be Determined,Unknown,Unknown,Unknown,1 59122U 24043AA  24073.54000571  .00009554  00000+0  49254-3 0  9999,2 59122  97.4639 198.6999 0013240 262.5644  97.4084 15.16502663  1300,15.16502663,0.001324,LEO
59123,OBJECT AB,2024,94.96,-1.0,+,97.46,Active,0,LEO,USA,To Be Determined,Unknown,Unknown,Unknown,1 59123U 24043AB  24073.54015884  .00005261  00000+0  27344-3 0  9990,2 59123  97.4597 198.6962 0012488 264.1423  95.8387 15.16442597  1307,15.16442597,0.0012488,LEO
59124,OBJECT AC,2024,94.95,-1.0,+,97.46,Active,0,LEO,USA,To Be Determined,Unknown,Unknown,Unknown,1 59124U 24043AC  24073.53937769  .00005255  00000+0  27202-3 0  9991,2 59124  97.4599 198.6968 0011874 262.3209  97.6676 15.16594625  1307,15.16594625,0.0011874,LEO
59125,OBJECT AD,2024,94.95,-1.0,+,97.46,Active,0,LEO,USA,To Be Determined,Unknown,Unknown,Unknown,1 59125U 24043AD  24073.53927323  .00007524  00000+0  38755-3 0  9993,2 59125  97.4640 198.7022 0012554 261.3268  98.6543 15.16614627  1306,15.16614627,0.0012554,LEO
59126,OBJECT AE,2024,94.95,-1.0,+,97.46,Active,0,LEO,USA,To Be Determined,Unknown,Unknown,Unknown,1 59126U 24043AE  24073.53921892  .00007310  00000+0  37668-3 0  9994,2 59126  97.4591 198.6956 0011464 261.4745  98.5189 15.16621367  1301,15.16621367,0.0011464,LEO
59127,OBJECT AF,2024,94.94,-1.0,+,97.46,Active,0,LEO,USA,To Be Determined,Unknown,Unknown,Unknown,1 59127U 24043AF  24073.53888916  .00007591  00000+0  39020-3 0  9999,2 59127  97.4606 198.6974 0011402 259.8793 100.1154 15.16696005  1308,15.16696005,0.0011402,LEO
59128,OBJECT AG,2024,94.95,-1.0,+,97.46,Active,0,LEO,USA,To Be Determined,Unknown,Unknown,Unknown,1 59128U 24043AG  24073.53891724  .00005227  00000+0  27005-3 0  9995,2 59128  97.4629 198.7024 0012051 260.2186  99.7687 15.16658865  1300,15.16658865,0.0012051,LEO
59129,OBJECT AH,2024,94.94,-1.0,+,97.46,Active,0,LEO,USA,To Be Determined,Unknown,Unknown,Unknown,1 59129U 24043AH  24073.53851203  .00010392  00000+0  53159-3 0  9992,2 59129  97.4599 198.6970 0011473 259.0588 100.9354 15.16771432  1307,15.16771432,0.0011473,LEO
59130,OBJECT AJ,2024,94.94,-1.0,+,97.46,Active,0,LEO,USA,To Be Determined,Unknown,Unknown,Unknown,1 59130U 24043AJ  24073.53834015  .00008191  00000+0  41964-3 0  9991,2 59130  97.4609 198.6983 0011593 257.4137 102.5800 15.16786076  1304,15.16786076,0.0011593,LEO
59131,OBJECT AK,2024,94.94,-1.0,+,97.46,Active,0,LEO,USA,To Be Determined,Unknown,Unknown,Unknown,1 59131U 24043AK  24073.53835189  .00005149  00000+0  26533-3 0  9990,2 59131  97.4627 198.7033 0012168 258.4129 101.5739 15.16757239  1302,15.16757239,0.0012168,LEO
59132,OBJECT AL,2024,94.94,-1.0,+,97.46,Active,0,LEO,USA,To Be Determined,Unknown,Unknown,Unknown,1 59132U 24043AL  24073.53803686  .00004392  00000+0  22657-3 0  9990,2 59132  97.4606 198.6976 0011900 254.9960 104.9956 15.16804958  1301,15.16804958,0.00119,LEO
59133,OBJECT AM,2024,94.93,-1.0,+,97.46,Active,0,LEO,USA,To Be Determined,Unknown,Unknown,Unknown,1 59133U 24043AM  24073.53769173  .00008166  00000+0  41693-3 0  9997,2 59133  97.4626 198.7037 0012352 257.1992 102.7861 15.16901008  1300,15.16901008,0.0012352,LEO
59134,OBJECT AN,2024,94.93,-1.0,+,97.46,Active,0,LEO,USA,To Be Determined,Unknown,Unknown,Unknown,1 59134U 24043AN  24073.53728996  .00009543  00000+0  48556-3 0  9991,2 59134  97.4603 198.6990 0011955 254.4733 105.5181 15.16976846  1302,15.16976846,0.0011955,LEO
59135,OBJECT AP,2024,94.93,-1.0,+,97.46,Active,0,LEO,USA,To Be Determined,Unknown,Unknown,Unknown,1 59135U 24043AP  24073.53706855  .00004319  00000+0  22173-3 0  9995,2 59135  97.4628 198.7040 0012310 252.9791 107.0094 15.16978070  1301,15.1697807,0.001231,LEO
59136,OBJECT AQ,2024,94.92,-1.0,+,97.46,Active,0,LEO,USA,To Be Determined,Unknown,Unknown,Unknown,1 59136U 24043AQ  24073.53685793  .00004209  00000+0  21598-3 0  9991,2 59136  97.4604 198.7005 0012199 252.1701 107.8202 15.17015333  1309,15.17015333,0.0012199,LEO
59137,OBJECT AR,2024,94.92,-1.0,+,97.46,Active,0,LEO,USA,To Be Determined,Unknown,Unknown,Unknown,1 59137U 24043AR  24073.53672849  .00004259  00000+0  21839-3 0  9993,2 59137  97.4606 198.7013 0011861 251.6380 108.3564 15.17038170  1304,15.1703817,0.0011861,LEO
59138,OBJECT AS,2024,94.9,-1.0,+,97.46,Active,0,LEO,USA,To Be Determined,Unknown,Unknown,Unknown,1 59138U 24043AS  24073.53553490  .00027895  00000+0  13912-2 0  9997,2 59138  97.4556 198.6997 0010466 258.7315 101.2742 15.17445640  1309,15.1744564,0.0010466,LEO
59139,OBJECT AT,2024,94.9,-1.0,+,97.46,Active,0,LEO,USA,To Be Determined,Unknown,Unknown,Unknown,1 59139U 24043AT  24073.46947372  .00025911  00000+0  12928-2 0  9999,2 59139  97.4558 198.6351 0010407 258.2430 101.7636 15.17447230  1285,15.1744723,0.0010407,LEO
59140,OBJECT AU,2024,94.9,-1.0,+,97.46,Active,0,LEO,USA,To Be Determined,Unknown,Unknown,Unknown,1 59140U 24043AU  24073.53508117  .00011938  00000+0  59942-3 0  9991,2 59140  97.4579 198.6999 0011218 247.1934 112.8115 15.17388722  1291,15.17388722,0.0011218,LEO
59141,OBJECT AV,2024,94.89,-1.0,+,97.46,Active,0,LEO,USA,To Be Determined,Unknown,Unknown,Unknown,1 59141U 24043AV  24073.53470043  .00013768  00000+0  68898-3 0  9991,2 59141  97.4592 198.7026 0010816 247.4257 112.5833 15.17476760  1297,15.1747676,0.0010816,LEO
59142,OBJECT AW,2024,94.9,-1.0,+,97.46,Active,0,LEO,USA,To Be Determined,Unknown,Unknown,Unknown,1 59142U 24043AW  24073.53470148  .00011602  00000+0  58150-3 0  9993,2 59142  97.4629 198.7063 0011481 245.9182 114.0851 15.17457294  1297,15.17457294,0.0011481,LEO
